[{"OBJECT_NAME":"ONEWEB-0266","OBJECT_ID":"2021-060T","EPOCH":"2025-09-03T00:18:58.338144","MEAN_MOTION":13.16593473,"ECCENTRICITY":0.00018924,"INCLINATION":87.8998,"RA_OF_ASC_NODE":286.0124,"ARG_OF_PERICENTER":100.1441,"MEAN_ANOMALY":259.9904,"EPHEMERIS_TYPE":0,"CLASSIFICATION_TYPE":"U","NORAD_CAT_ID":48984,"ELEMENT_SET_NO":999,"REV_AT_EPOCH":20179,"BSTAR":6.6071947e-5,"MEAN_MOTION_DOT":3.8e-7,"MEAN_MOTION_DDOT":0},{"OBJECT_NAME":"ONEWEB-0267","OBJECT_ID":"2021-060U","EPOCH":"2025-09-03T00:34:55.695936","MEAN_MOTION":13.16593344,"ECCENTRICITY":0.00017249,"INCLINATION":87.8998,"RA_OF_ASC_NODE":286.0129,"ARG_OF_PERICENTER":86.2898,"MEAN_ANOMALY":273.843,"EPHEMERIS_TYPE":0,"CLASSIFICATION_TYPE":"U","NORAD_CAT_ID":48985,"ELEMENT_SET_NO":999,"REV_AT_EPOCH":20180,"BSTAR":5.7895017e-5,"MEAN_MOTION_DOT":3.5e-7,"MEAN_MOTION_DDOT":0},{"OBJECT_NAME":"ONEWEB-0268","OBJECT_ID":"2021-060V","EPOCH":"2025-09-03T01:38:45.408768","MEAN_MOTION":13.16593837,"ECCENTRICITY":0.00019608,"INCLINATION":87.8998,"RA_OF_ASC_NODE":286.0098,"ARG_OF_PERICENTER":90.6142,"MEAN_ANOMALY":269.5214,"EPHEMERIS_TYPE":0,"CLASSIFICATION_TYPE":"U","NORAD_CAT_ID":48986,"ELEMENT_SET_NO":999,"REV_AT_EPOCH":20207,"BSTAR":-7.9513561e-5,"MEAN_MOTION_DOT":-1.8e-7,"MEAN_MOTION_DDOT":0},{"OBJECT_NAME":"ONEWEB-0269","OBJECT_ID":"2021-060W","EPOCH":"2025-09-03T01:11:24.200160","MEAN_MOTION":13.16593067,"ECCENTRICITY":0.00020526,"INCLINATION":87.8991,"RA_OF_ASC_NODE":286.0445,"ARG_OF_PERICENTER":94.4334,"MEAN_ANOMALY":265.7031,"EPHEMERIS_TYPE":0,"CLASSIFICATION_TYPE":"U","NORAD_CAT_ID":48987,"ELEMENT_SET_NO":999,"REV_AT_EPOCH":20184,"BSTAR":-2.6874225e-5,"MEAN_MOTION_DOT":3.0e-8,"MEAN_MOTION_DDOT":0},{"OBJECT_NAME":"ONEWEB-0270","OBJECT_ID":"2021-060X","EPOCH":"2025-09-03T01:36:29.073024","MEAN_MOTION":13.16594431,"ECCENTRICITY":0.00014753,"INCLINATION":87.8997,"RA_OF_ASC_NODE":286.012,"ARG_OF_PERICENTER":89.5267,"MEAN_ANOMALY":270.6033,"EPHEMERIS_TYPE":0,"CLASSIFICATION_TYPE":"U","NORAD_CAT_ID":48988,"ELEMENT_SET_NO":999,"REV_AT_EPOCH":20188,"BSTAR":-3.3082282e-5,"MEAN_MOTION_DOT":0,"MEAN_MOTION_DDOT":0},{"OBJECT_NAME":"ONEWEB-0271","OBJECT_ID":"2021-060Y","EPOCH":"2025-09-03T01:18:14.723712","MEAN_MOTION":13.16594138,"ECCENTRICITY":0.00017361,"INCLINATION":87.9,"RA_OF_ASC_NODE":285.9983,"ARG_OF_PERICENTER":86.7498,"MEAN_ANOMALY":273.3832,"EPHEMERIS_TYPE":0,"CLASSIFICATION_TYPE":"U","NORAD_CAT_ID":48989,"ELEMENT_SET_NO":999,"REV_AT_EPOCH":20188,"BSTAR":2.4195857e-5,"MEAN_MOTION_DOT":2.2e-7,"MEAN_MOTION_DDOT":0},{"OBJECT_NAME":"ONEWEB-0272","OBJECT_ID":"2021-060Z","EPOCH":"2025-09-02T20:21:51.187968","MEAN_MOTION":13.16595523,"ECCENTRICITY":0.00018725,"INCLINATION":87.8992,"RA_OF_ASC_NODE":286.0683,"ARG_OF_PERICENTER":86.1887,"MEAN_ANOMALY":273.9458,"EPHEMERIS_TYPE":0,"CLASSIFICATION_TYPE":"U","NORAD_CAT_ID":48990,"ELEMENT_SET_NO":999,"REV_AT_EPOCH":20180,"BSTAR":0.00010198413,"MEAN_MOTION_DOT":5.2e-7,"MEAN_MOTION_DDOT":0},{"OBJECT_NAME":"ONEWEB-0273","OBJECT_ID":"2021-060AA","EPOCH":"2025-09-03T02:22:05.549376","MEAN_MOTION":13.16593928,"ECCENTRICITY":0.00017046,"INCLINATION":87.8999,"RA_OF_ASC_NODE":286.0056,"ARG_OF_PERICENTER":92.6344,"MEAN_ANOMALY":267.4982,"EPHEMERIS_TYPE":0,"CLASSIFICATION_TYPE":"U","NORAD_CAT_ID":48991,"ELEMENT_SET_NO":999,"REV_AT_EPOCH":20181,"BSTAR":0.00035963061,"MEAN_MOTION_DOT":1.5e-6,"MEAN_MOTION_DDOT":0},{"OBJECT_NAME":"ONEWEB-0274","OBJECT_ID":"2021-060AB","EPOCH":"2025-09-03T01:09:07.794432","MEAN_MOTION":13.1659353,"ECCENTRICITY":0.0002136,"INCLINATION":87.8992,"RA_OF_ASC_NODE":286.0479,"ARG_OF_PERICENTER":83.9643,"MEAN_ANOMALY":276.1731,"EPHEMERIS_TYPE":0,"CLASSIFICATION_TYPE":"U","NORAD_CAT_ID":48992,"ELEMENT_SET_NO":999,"REV_AT_EPOCH":20184,"BSTAR":-0.0001037258,"MEAN_MOTION_DOT":-2.7e-7,"MEAN_MOTION_DDOT":0},{"OBJECT_NAME":"ONEWEB-0275","OBJECT_ID":"2021-060AC","EPOCH":"2025-09-03T00:53:09.524256","MEAN_MOTION":13.16592724,"ECCENTRICITY":0.00018606,"INCLINATION":87.8996,"RA_OF_ASC_NODE":286.0127,"ARG_OF_PERICENTER":89.2143,"MEAN_ANOMALY":270.9201,"EPHEMERIS_TYPE":0,"CLASSIFICATION_TYPE":"U","NORAD_CAT_ID":48993,"ELEMENT_SET_NO":999,"REV_AT_EPOCH":20177,"BSTAR":6.877716e-6,"MEAN_MOTION_DOT":1.5e-7,"MEAN_MOTION_DDOT":0},{"OBJECT_NAME":"ONEWEB-0276","OBJECT_ID":"2021-060AD","EPOCH":"2025-09-03T01:41:02.808096","MEAN_MOTION":13.16594188,"ECCENTRICITY":0.00017518,"INCLINATION":87.8998,"RA_OF_ASC_NODE":286.0032,"ARG_OF_PERICENTER":96.8136,"MEAN_ANOMALY":263.3194,"EPHEMERIS_TYPE":0,"CLASSIFICATION_TYPE":"U","NORAD_CAT_ID":48994,"ELEMENT_SET_NO":999,"REV_AT_EPOCH":20179,"BSTAR":-7.7814339e-5,"MEAN_MOTION_DOT":-1.7e-7,"MEAN_MOTION_DDOT":0},{"OBJECT_NAME":"ONEWEB-0277","OBJECT_ID":"2021-060AE","EPOCH":"2025-09-03T01:59:16.322784","MEAN_MOTION":13.1659414,"ECCENTRICITY":0.00016588,"INCLINATION":87.8994,"RA_OF_ASC_NODE":286.0344,"ARG_OF_PERICENTER":84.3759,"MEAN_ANOMALY":275.7561,"EPHEMERIS_TYPE":0,"CLASSIFICATION_TYPE":"U","NORAD_CAT_ID":48995,"ELEMENT_SET_NO":999,"REV_AT_EPOCH":20178,"BSTAR":-6.3240613e-5,"MEAN_MOTION_DOT":-1.1e-7,"MEAN_MOTION_DDOT":0},{"OBJECT_NAME":"ONEWEB-0278","OBJECT_ID":"2021-060AF","EPOCH":"2025-09-03T01:45:35.928000","MEAN_MOTION":13.16595002,"ECCENTRICITY":0.00018847,"INCLINATION":87.8997,"RA_OF_ASC_NODE":285.9993,"ARG_OF_PERICENTER":100.4995,"MEAN_ANOMALY":259.6349,"EPHEMERIS_TYPE":0,"CLASSIFICATION_TYPE":"U","NORAD_CAT_ID":48996,"ELEMENT_SET_NO":999,"REV_AT_EPOCH":20191,"BSTAR":5.287896e-6,"MEAN_MOTION_DOT":1.5e-7,"MEAN_MOTION_DDOT":0},{"OBJECT_NAME":"ONEWEB-0279","OBJECT_ID":"2021-060AG","EPOCH":"2025-09-03T01:56:59.573184","MEAN_MOTION":13.16594737,"ECCENTRICITY":0.00017476,"INCLINATION":87.8996,"RA_OF_ASC_NODE":285.9933,"ARG_OF_PERICENTER":83.7486,"MEAN_ANOMALY":276.3844,"EPHEMERIS_TYPE":0,"CLASSIFICATION_TYPE":"U","NORAD_CAT_ID":48997,"ELEMENT_SET_NO":999,"REV_AT_EPOCH":20184,"BSTAR":9.4269418e-5,"MEAN_MOTION_DOT":4.9e-7,"MEAN_MOTION_DDOT":0},{"OBJECT_NAME":"ONEWEB-0280","OBJECT_ID":"2021-060AH","EPOCH":"2025-09-03T02:18:38.730240","MEAN_MOTION":13.1659613,"ECCENTRICITY":0.00016104,"INCLINATION":87.9,"RA_OF_ASC_NODE":285.9983,"ARG_OF_PERICENTER":98.9614,"MEAN_ANOMALY":261.1699,"EPHEMERIS_TYPE":0,"CLASSIFICATION_TYPE":"U","NORAD_CAT_ID":48998,"ELEMENT_SET_NO":999,"REV_AT_EPOCH":20178,"BSTAR":-0.001828173,"MEAN_MOTION_DOT":-6.86e-6,"MEAN_MOTION_DDOT":0},{"OBJECT_NAME":"ONEWEB-0281","OBJECT_ID":"2021-060AJ","EPOCH":"2025-09-03T00:37:11.902080","MEAN_MOTION":13.16612858,"ECCENTRICITY":0.00021212,"INCLINATION":87.8996,"RA_OF_ASC_NODE":286.0092,"ARG_OF_PERICENTER":93.0427,"MEAN_ANOMALY":267.0947,"EPHEMERIS_TYPE":0,"CLASSIFICATION_TYPE":"U","NORAD_CAT_ID":48999,"ELEMENT_SET_NO":999,"REV_AT_EPOCH":20184,"BSTAR":-0.011299406,"MEAN_MOTION_DOT":-4.306e-5,"MEAN_MOTION_DDOT":0},{"OBJECT_NAME":"ONEWEB-0282","OBJECT_ID":"2021-060AK","EPOCH":"2025-09-03T01:20:31.378272","MEAN_MOTION":13.16594003,"ECCENTRICITY":0.00017227,"INCLINATION":87.8999,"RA_OF_ASC_NODE":286.013,"ARG_OF_PERICENTER":92.2163,"MEAN_ANOMALY":267.9165,"EPHEMERIS_TYPE":0,"CLASSIFICATION_TYPE":"U","NORAD_CAT_ID":49000,"ELEMENT_SET_NO":999,"REV_AT_EPOCH":20182,"BSTAR":-4.3156839e-5,"MEAN_MOTION_DOT":-4.0e-8,"MEAN_MOTION_DDOT":0}]
