ONEWEB-0266             
1 48984U 21060T   25246.01317521  .00000038  00000+0  66072-4 0  9996
2 48984  87.8998 286.0124 0001892 100.1441 259.9904 13.16593473201797
ONEWEB-0267             
1 48985U 21060U   25246.02425574  .00000035  00000+0  57895-4 0  9996
2 48985  87.8998 286.0129 0001724  86.2898 273.8430 13.16593344201805
ONEWEB-0268             
1 48986U 21060V   25246.06858112 -.00000018  00000+0 -79514-4 0  9994
2 48986  87.8998 286.0098 0001960  90.6142 269.5214 13.16593837202073
ONEWEB-0269             
1 48987U 21060W   25246.04958565  .00000003  00000+0 -26874-4 0  9990
2 48987  87.8991 286.0445 0002052  94.4334 265.7031 13.16593067201845
ONEWEB-0270             
1 48988U 21060X   25246.06700316  .00000000  00000+0 -33082-4 0  9998
2 48988  87.8997 286.0120 0001475  89.5267 270.6033 13.16594431201887
ONEWEB-0271             
1 48989U 21060Y   25246.05433708  .00000022  00000+0  24196-4 0  9995
2 48989  87.9000 285.9983 0001736  86.7498 273.3832 13.16594138201885
ONEWEB-0272             
1 48990U 21060Z   25245.84850912  .00000052  00000+0  10198-3 0  9992
2 48990  87.8992 286.0683 0001872  86.1887 273.9458 13.16595523201803
ONEWEB-0273             
1 48991U 21060AA  25246.09867534  .00000150  00000+0  35963-3 0  9995
2 48991  87.8999 286.0056 0001704  92.6344 267.4982 13.16593928201817
ONEWEB-0274             
1 48992U 21060AB  25246.04800688 -.00000027  00000+0 -10373-3 0  9991
2 48992  87.8992 286.0479 0002136  83.9643 276.1731 13.16593530201846
ONEWEB-0275             
1 48993U 21060AC  25246.03691579  .00000015  00000+0  68777-5 0  9996
2 48993  87.8996 286.0127 0001860  89.2143 270.9201 13.16592724201778
ONEWEB-0276             
1 48994U 21060AD  25246.07017139 -.00000017  00000+0 -77814-4 0  9990
2 48994  87.8998 286.0032 0001751  96.8136 263.3194 13.16594188201796
ONEWEB-0277             
1 48995U 21060AE  25246.08282781 -.00000011  00000+0 -63241-4 0  9992
2 48995  87.8994 286.0344 0001658  84.3759 275.7561 13.16594140201780
ONEWEB-0278             
1 48996U 21060AF  25246.07333250  .00000015  00000+0  52879-5 0  9998
2 48996  87.8997 285.9993 0001884 100.4995 259.6349 13.16595002201913
ONEWEB-0279             
1 48997U 21060AG  25246.08124506  .00000049  00000+0  94269-4 0  9997
2 48997  87.8996 285.9933 0001747  83.7486 276.3844 13.16594737201845
ONEWEB-0280             
1 48998U 21060AH  25246.09628160 -.00000686  00000+0 -18282-2 0  9992
2 48998  87.9000 285.9983 0001610  98.9614 261.1699 13.16596130201780
ONEWEB-0281             
1 48999U 21060AJ  25246.02583220 -.00004306  00000+0 -11299-1 0  9996
2 48999  87.8996 286.0092 0002121  93.0427 267.0947 13.16612858201847
ONEWEB-0282             
1 49000U 21060AK  25246.05591873 -.00000004  00000+0 -43157-4 0  9998
2 49000  87.8999 286.0130 0001722  92.2163 267.9165 13.16594003201821
